$$SOE
2461281.500000000, A.D. 2026-Aug-29 00:00:00.0000, -1.581336624504426E+09, -6.261227811839209E+09, -1.356518139779887E+08,
2461288.500000000, A.D. 2026-Sep-05 00:00:00.0000, -1.578659843484756E+09, -6.261916860529628E+09, -1.358159657563620E+08,
2461295.500000000, A.D. 2026-Sep-12 00:00:00.0000, -1.575982749198673E+09, -6.262604829343386E+09, -1.359800932427750E+08,
2461302.500000000, A.D. 2026-Sep-19 00:00:00.0000, -1.573305343689490E+09, -6.263291719146173E+09, -1.361441962546649E+08,
2461309.500000000, A.D. 2026-Sep-26 00:00:00.0000, -1.570627628622140E+09, -6.263977531386094E+09, -1.363082746575499E+08,
2461316.500000000, A.D. 2026-Oct-03 00:00:00.0000, -1.567949605212919E+09, -6.264662267858302E+09, -1.364723283553524E+08,
2461323.500000000, A.D. 2026-Oct-10 00:00:00.0000, -1.565271274245840E+09, -6.265345930562319E+09, -1.366363572812791E+08,
2461330.500000000, A.D. 2026-Oct-17 00:00:00.0000, -1.562592636123907E+09, -6.266028521632915E+09, -1.368003613923564E+08,
2461337.500000000, A.D. 2026-Oct-24 00:00:00.0000, -1.559913690930971E+09, -6.266710043367045E+09, -1.369643406716313E+08,
2461344.500000000, A.D. 2026-Oct-31 00:00:00.0000, -1.557234438405349E+09, -6.267390498413538E+09, -1.371282951523938E+08,
2461351.500000000, A.D. 2026-Nov-07 00:00:00.0000, -1.554554877486178E+09, -6.268069890051414E+09, -1.372922249893198E+08,
2461358.500000000, A.D. 2026-Nov-14 00:00:00.0000, -1.551875005231617E+09, -6.268748221669391E+09, -1.374561305222321E+08,
2461365.500000000, A.D. 2026-Nov-21 00:00:00.0000, -1.549194816920641E+09, -6.269425494764774E+09, -1.376200121103501E+08,
2461372.500000000, A.D. 2026-Nov-28 00:00:00.0000, -1.546514308336529E+09, -6.270101708469690E+09, -1.377838698910513E+08,
2461379.500000000, A.D. 2026-Dec-05 00:00:00.0000, -1.543833476612504E+09, -6.270776861261095E+09, -1.379477038484707E+08,
2461386.500000000, A.D. 2026-Dec-12 00:00:00.0000, -1.541152319474602E+09, -6.271450951743490E+09, -1.381115139525461E+08,
2461393.500000000, A.D. 2026-Dec-19 00:00:00.0000, -1.538470834769039E+09, -6.272123978497994E+09, -1.382753001946182E+08,
2461400.500000000, A.D. 2026-Dec-26 00:00:00.0000, -1.535789020416495E+09, -6.272795939865766E+09, -1.384390625772500E+08,
2461407.500000000, A.D. 2027-Jan-02 00:00:00.0000, -1.533106874517751E+09, -6.273466833856903E+09, -1.386028010989819E+08,
2461414.500000000, A.D. 2027-Jan-09 00:00:00.0000, -1.530424395494338E+09, -6.274136658164740E+09, -1.387665157429948E+08,
2461421.500000000, A.D. 2027-Jan-16 00:00:00.0000, -1.527741582229915E+09, -6.274805410276984E+09, -1.389302064721141E+08,
2461428.500000000, A.D. 2027-Jan-23 00:00:00.0000, -1.525058434167796E+09, -6.275473087723528E+09, -1.390938732375937E+08,
2461435.500000000, A.D. 2027-Jan-30 00:00:00.0000, -1.522374951178498E+09, -6.276139688508883E+09, -1.392575160228329E+08,
2461442.500000000, A.D. 2027-Feb-06 00:00:00.0000, -1.519691132774220E+09, -6.276805211389373E+09, -1.394211349332881E+08,
2461449.500000000, A.D. 2027-Feb-13 00:00:00.0000, -1.517006977132132E+09, -6.277469654775552E+09, -1.395847301908212E+08,
2461456.500000000, A.D. 2027-Feb-20 00:00:00.0000, -1.514322482291659E+09, -6.278133015050924E+09, -1.397483018804793E+08,
2461463.500000000, A.D. 2027-Feb-27 00:00:00.0000, -1.511637648130810E+09, -6.278795287520702E+09, -1.399118498405848E+08,
2461470.500000000, A.D. 2027-Mar-06 00:00:00.0000, -1.508952476104039E+09, -6.279456468068007E+09, -1.400753738160167E+08,
2461477.500000000, A.D. 2027-Mar-13 00:00:00.0000, -1.506266968342178E+09, -6.280116553468119E+09, -1.402388735606275E+08,
2461484.500000000, A.D. 2027-Mar-20 00:00:00.0000, -1.503581127244030E+09, -6.280775541195364E+09, -1.404023488535967E+08,
2461491.500000000, A.D. 2027-Mar-27 00:00:00.0000, -1.500894955357622E+09, -6.281433429271606E+09, -1.405657994932480E+08,
2461498.500000000, A.D. 2027-Apr-03 00:00:00.0000, -1.498208455348247E+09, -6.282090216204080E+09, -1.407292252909565E+08,
2461505.500000000, A.D. 2027-Apr-10 00:00:00.0000, -1.495521629992042E+09, -6.282745900989489E+09, -1.408926260689449E+08,
2461512.500000000, A.D. 2027-Apr-17 00:00:00.0000, -1.492834482173026E+09, -6.283400483198698E+09, -1.410560016652112E+08,
2461519.500000000, A.D. 2027-Apr-24 00:00:00.0000, -1.490147014804388E+09, -6.284053963204169E+09, -1.412193519579687E+08,
2461526.500000000, A.D. 2027-May-01 00:00:00.0000, -1.487459230374393E+09, -6.284706342522326E+09, -1.413826769347868E+08,
2461533.500000000, A.D. 2027-May-08 00:00:00.0000, -1.484771129809506E+09, -6.285357623522469E+09, -1.415459767734895E+08,
2461540.500000000, A.D. 2027-May-15 00:00:00.0000, -1.482082712151611E+09, -6.286007807548781E+09, -1.417092517195573E+08,
2461547.500000000, A.D. 2027-May-22 00:00:00.0000, -1.479393976613189E+09, -6.286656894047070E+09, -1.418725018283668E+08,
2461554.500000000, A.D. 2027-May-29 00:00:00.0000, -1.476704923654521E+09, -6.287304882164444E+09, -1.420357269999995E+08,
2461561.500000000, A.D. 2027-Jun-05 00:00:00.0000, -1.474015554198090E+09, -6.287951771690224E+09, -1.421989271317401E+08,
2461568.500000000, A.D. 2027-Jun-12 00:00:00.0000, -1.471325868987696E+09, -6.288597562906276E+09, -1.423621021687231E+08,
2461575.500000000, A.D. 2027-Jun-19 00:00:00.0000, -1.468635868423319E+09, -6.289242256281757E+09, -1.425252520986733E+08,
2461582.500000000, A.D. 2027-Jun-26 00:00:00.0000, -1.465945552592302E+09, -6.289885852273638E+09, -1.426883769375000E+08,
2461589.500000000, A.D. 2027-Jul-03 00:00:00.0000, -1.463254921364731E+09, -6.290528351224648E+09, -1.428514767170038E+08,
2461596.500000000, A.D. 2027-Jul-10 00:00:00.0000, -1.460563974516168E+09, -6.291169753349958E+09, -1.430145514771090E+08,
2461603.500000000, A.D. 2027-Jul-17 00:00:00.0000, -1.457872711841396E+09, -6.291810058851447E+09, -1.431776012688808E+08,
2461610.500000000, A.D. 2027-Jul-24 00:00:00.0000, -1.455181133102735E+09, -6.292449268222366E+09, -1.433406261875663E+08,
2461617.500000000, A.D. 2027-Jul-31 00:00:00.0000, -1.452489237401509E+09, -6.293087382506867E+09, -1.435036264539194E+08,
2461624.500000000, A.D. 2027-Aug-07 00:00:00.0000, -1.449797022173385E+09, -6.293724402362701E+09, -1.436666024310832E+08,
2461631.500000000, A.D. 2027-Aug-14 00:00:00.0000, -1.447104484108698E+09, -6.294360326180358E+09, -1.438295543866010E+08,
2461638.500000000, A.D. 2027-Aug-21 00:00:00.0000, -1.444411621379557E+09, -6.294995150622861E+09, -1.439924823311129E+08,
2461645.500000000, A.D. 2027-Aug-28 00:00:00.0000, -1.441718433742644E+09, -6.295628872382986E+09, -1.441553861501536E+08,
2461652.500000000, A.D. 2027-Sep-04 00:00:00.0000, -1.439024921698886E+09, -6.296261488655606E+09, -1.443182657163258E+08,
2461659.500000000, A.D. 2027-Sep-11 00:00:00.0000, -1.436331086105285E+09, -6.296892996986440E+09, -1.444811209081407E+08,
2461666.500000000, A.D. 2027-Sep-18 00:00:00.0000, -1.433636928105742E+09, -6.297523395147321E+09, -1.446439516010900E+08,
2461673.500000000, A.D. 2027-Sep-25 00:00:00.0000, -1.430942449152000E+09, -6.298152681115349E+09, -1.448067576585789E+08,
2461680.500000000, A.D. 2027-Oct-02 00:00:00.0000, -1.428247651039646E+09, -6.298780853128047E+09, -1.449695389275956E+08,
2461687.500000000, A.D. 2027-Oct-09 00:00:00.0000, -1.425552535936658E+09, -6.299407909818619E+09, -1.451322952418065E+08,
2461694.500000000, A.D. 2027-Oct-16 00:00:00.0000, -1.422857106341229E+09, -6.300033850485781E+09, -1.452950264425821E+08,
2461701.500000000, A.D. 2027-Oct-23 00:00:00.0000, -1.420161364708849E+09, -6.300658675503433E+09, -1.454577324424443E+08,
2461708.500000000, A.D. 2027-Oct-30 00:00:00.0000, -1.417465312373816E+09, -6.301282386259541E+09, -1.456204133155584E+08,
2461715.500000000, A.D. 2027-Nov-06 00:00:00.0000, -1.414768948928486E+09, -6.301904983495760E+09, -1.457830692164817E+08,
2461722.500000000, A.D. 2027-Nov-13 00:00:00.0000, -1.412072274045623E+09, -6.302526466123816E+09, -1.459457001147962E+08,
2461729.500000000, A.D. 2027-Nov-20 00:00:00.0000, -1.409375288841932E+09, -6.303146832704304E+09, -1.461083057904530E+08,
2461736.500000000, A.D. 2027-Nov-27 00:00:00.0000, -1.406677995165179E+09, -6.303766082623395E+09, -1.462708859958668E+08,
2461743.500000000, A.D. 2027-Dec-04 00:00:00.0000, -1.403980394828430E+09, -6.304384216053359E+09, -1.464334405244579E+08,
2461750.500000000, A.D. 2027-Dec-11 00:00:00.0000, -1.401282489341988E+09, -6.305001233660861E+09, -1.465959692138677E+08,
2461757.500000000, A.D. 2027-Dec-18 00:00:00.0000, -1.398584279868031E+09, -6.305617136401995E+09, -1.467584719367075E+08,
2461764.500000000, A.D. 2027-Dec-25 00:00:00.0000, -1.395885767245985E+09, -6.306231925406109E+09, -1.469209485928640E+08,
2461771.500000000, A.D. 2028-Jan-01 00:00:00.0000, -1.393186952047189E+09, -6.306845601933781E+09, -1.470833991058626E+08,
$$EOE